CCSDS_OMM_VERS,COMMENT,CREATION_DATE,ORIGINATOR,OBJECT_NAME,OBJECT_ID,CENTER_NAME,REF_FRAME,TIME_SYSTEM,MEAN_ELEMENT_THEORY,EPOCH,MEAN_MOTION,ECCENTRICITY,INCLINATION,RA_OF_ASC_NODE,ARG_OF_PERICENTER,MEAN_ANOMALY,EPHEMERIS_TYPE,CLASSIFICATION_TYPE,NORAD_CAT_ID,ELEMENT_SET_NO,REV_AT_EPOCH,BSTAR,MEAN_MOTION_DOT,MEAN_MOTION_DDOT,SEMIMAJOR_AXIS,PERIOD,APOAPSIS,PERIAPSIS,OBJECT_TYPE,RCS_SIZE,COUNTRY_CODE,LAUNCH_DATE,SITE,DECAY_DATE,FILE,GP_ID,TLE_LINE0,TLE_LINE1,TLE_LINE2
"2.0","GENERATED VIA SPACE-TRACK.ORG API","2020-11-16T03:18:46","18 SPCS","SL-18 DEB","1993-014BJ","EARTH","TEME","UTC","SGP4","2020-11-15T15:46:06.287808","14.81909277","0.00732380","75.7385","287.7012","201.6867","158.1215","0","U","35359","999","70467","0.00056244000000","0.00004647","0.0000000000000","7001.440","97.171","674.583","572.028","DEBRIS","SMALL","CIS","1993-03-25","PKMTR","","2875293","165539323","0 SL-18 DEB","1 35359U 93014BJ  20320.65701722 +.00004647 +00000-0 +56244-3 0  9994","2 35359 075.7385 287.7012 0073238 201.6867 158.1215 14.81909277704677"
"2.0","GENERATED VIA SPACE-TRACK.ORG API","2020-11-15T19:49:19","18 SPCS","IRIDIUM 176","2019-002B","EARTH","TEME","UTC","SGP4","2020-11-15T12:23:07.852704","14.72248202","0.00021690","86.6079","126.0426","85.4241","274.7224","0","U","43923","999","9915","-0.00000121400000","0.00000017","0.0000000000000","7032.037","97.809","655.427","652.376","PAYLOAD","LARGE","US","2019-01-11","AFWTR","","2875256","165521115","0 IRIDIUM 176","1 43923U 19002B   20320.51606311 +.00000017 +00000-0 -12140-5 0  9995","2 43923 086.6079 126.0426 0002169 085.4241 274.7224 14.72248202099156"
"2.0","GENERATED VIA SPACE-TRACK.ORG API","2020-11-15T19:49:19","18 SPCS","SL-18 DEB","1993-014BJ","EARTH","TEME","UTC","SGP4","2020-11-15T06:02:47.666112","14.81905773","0.00732920","75.7385","288.4180","202.6892","157.1051","0","U","35359","999","70461","0.00056898000000","0.00004701","0.0000000000000","7001.451","97.172","674.632","572.001","DEBRIS","SMALL","CIS","1993-03-25","PKMTR","","2875256","165517158","0 SL-18 DEB","1 35359U 93014BJ  20320.25194058 +.00004701 +00000-0 +56898-3 0  9994","2 35359 075.7385 288.4180 0073292 202.6892 157.1051 14.81905773704618"
"2.0","GENERATED VIA SPACE-TRACK.ORG API","2020-11-14T17:10:29","18 SPCS","IRIDIUM 176","2019-002B","EARTH","TEME","UTC","SGP4","2020-11-14T00:29:54.449376","14.72248313","0.00021830","86.6078","126.6678","84.8104","275.3362","0","U","43923","999","9893","0.00000428650000","0.00000052","0.0000000000000","7032.036","97.809","655.436","652.366","PAYLOAD","LARGE","US","2019-01-11","AFWTR","","2875134","165481337","0 IRIDIUM 176","1 43923U 19002B   20319.02076909 +.00000052 +00000-0 +42865-5 0  9998","2 43923 086.6078 126.6678 0002183 084.8104 275.3362 14.72248313098935"
"2.0","GENERATED VIA SPACE-TRACK.ORG API","2020-11-14T05:37:11","18 SPCS","IRIDIUM 176","2019-002B","EARTH","TEME","UTC","SGP4","2020-11-13T17:58:24.745728","14.72247889","0.00022410","86.6080","126.7818","85.9010","274.2464","0","U","43923","999","9889","0.00000481860000","0.00000055","0.0000000000000","7032.038","97.809","655.478","652.327","PAYLOAD","LARGE","US","2019-01-11","AFWTR","","2875091","165459226","0 IRIDIUM 176","1 43923U 19002B   20318.74889752 +.00000055 +00000-0 +48186-5 0  9999","2 43923 086.6080 126.7818 0002241 085.9010 274.2464 14.72247889098891"
"2.0","GENERATED VIA SPACE-TRACK.ORG API","2020-11-13T20:33:19","18 SPCS","IRIDIUM 176","2019-002B","EARTH","TEME","UTC","SGP4","2020-11-13T13:04:47.340768","14.72255400","0.00031250","86.6058","126.8654","103.3745","256.7821","0","U","43923","999","9886","0.00000470970000","0.00000054","0.0000000000000","7032.014","97.809","656.076","651.681","PAYLOAD","LARGE","US","2019-01-11","AFWTR","","2875088","165436712","0 IRIDIUM 176","1 43923U 19002B   20318.54499237 +.00000054 +00000-0 +47097-5 0  9991","2 43923 086.6058 126.8654 0003125 103.3745 256.7821 14.72255400098864"
"2.0","GENERATED VIA SPACE-TRACK.ORG API","2020-11-13T20:33:19","18 SPCS","SL-18 DEB","1993-014BJ","EARTH","TEME","UTC","SGP4","2020-11-13T07:03:26.505792","14.81887542","0.00735060","75.7384","291.8831","207.6146","152.1130","0","U","35359","999","70432","0.00057255000000","0.00004730","0.0000000000000","7001.509","97.173","674.839","571.909","DEBRIS","SMALL","CIS","1993-03-25","PKMTR","","2875088","165431262","0 SL-18 DEB","1 35359U 93014BJ  20318.29405678 +.00004730 +00000-0 +57255-3 0  9998","2 35359 075.7384 291.8831 0073506 207.6146 152.1130 14.81887542704327"
"2.0","GENERATED VIA SPACE-TRACK.ORG API","2020-11-12T18:00:49","18 SPCS","SL-18 DEB","1993-014BJ","EARTH","TEME","UTC","SGP4","2020-11-12T06:45:08.549280","14.81878727","0.00736350","75.7385","293.6752","210.1618","149.5321","0","U","35359","999","70417","0.00060556000000","0.00005004","0.0000000000000","7001.537","97.173","674.957","571.846","DEBRIS","SMALL","CIS","1993-03-25","PKMTR","","2875085","165386308","0 SL-18 DEB","1 35359U 93014BJ  20317.28134895 +.00005004 +00000+0 +60556-3 0  9998","2 35359  75.7385 293.6752 0073635 210.1618 149.5321 14.81878727704176"
"2.0","GENERATED VIA SPACE-TRACK.ORG API","2020-11-12T18:00:49","18 SPCS","IRIDIUM 176","2019-002B","EARTH","TEME","UTC","SGP4","2020-11-12T04:27:19.218240","14.72254509","0.00022240","86.6075","127.4352","85.5491","274.5980","0","U","43923","999","9866","0.00000715390000","0.00000070","0.0000000000000","7032.017","97.809","655.445","652.318","PAYLOAD","LARGE","US","2019-01-11","AFWTR","","2875085","165395654","0 IRIDIUM 176","1 43923U 19002B   20317.18563910 +.00000070 +00000+0 +71539-5 0  9995","2 43923  86.6075 127.4352 0002224  85.5491 274.5980 14.72254509098664"
"2.0","GENERATED VIA SPACE-TRACK.ORG API","2020-11-12T04:51:34","18 SPCS","IRIDIUM 176","2019-002B","EARTH","TEME","UTC","SGP4","2020-11-11T13:46:27.596928","14.72254460","0.00022280","86.6075","127.6910","85.3982","274.7490","0","U","43923","999","9857","0.00000697310000","0.00000069","0.0000000000000","7032.017","97.809","655.448","652.315","PAYLOAD","LARGE","US","2019-01-11","AFWTR","","2875084","165371905","0 IRIDIUM 176","1 43923U 19002B   20316.57393052 +.00000069 +00000+0 +69731-5 0  9994","2 43923  86.6075 127.6910 0002228  85.3982 274.7490 14.72254460098577"
"2.0","GENERATED VIA SPACE-TRACK.ORG API","2020-11-11T16:36:54","18 SPCS","IRIDIUM 176","2019-002B","EARTH","TEME","UTC","SGP4","2020-11-11T00:43:28.376256","14.72254403","0.00022350","86.6075","127.9183","85.3480","274.7992","0","U","43923","999","9849","0.00000666160000","0.00000067","0.0000000000000","7032.017","97.809","655.454","652.310","PAYLOAD","LARGE","US","2019-01-11","AFWTR","","2875082","165352511","0 IRIDIUM 176","1 43923U 19002B   20316.03018954 +.00000067 +00000+0 +66616-5 0  9997","2 43923  86.6075 127.9183 0002235  85.3480 274.7992 14.72254403098498"
"2.0","GENERATED VIA SPACE-TRACK.ORG API","2020-11-11T16:36:54","18 SPCS","SL-18 DEB","1993-014BJ","EARTH","TEME","UTC","SGP4","2020-11-09T09:04:38.087904","14.81850429","0.00739590","75.7391","298.8122","217.4103","142.1924","0","U","35359","999","70374","0.00059834000000","0.00004942","0.0000000000000","7001.626","97.175","675.274","571.707","DEBRIS","SMALL","CIS","1993-03-25","PKMTR","","2875082","165344021","0 SL-18 DEB","1 35359U 93014BJ  20314.37821861 +.00004942 +00000+0 +59834-3 0  9998","2 35359  75.7391 298.8122 0073959 217.4103 142.1924 14.81850429703748"
"2.0","GENERATED VIA SPACE-TRACK.ORG API","2020-11-08T05:03:59","18 SPCS","IRIDIUM 176","2019-002B","EARTH","TEME","UTC","SGP4","2020-11-07T18:25:33.012480","14.72254144","0.00022670","86.6076","129.2827","84.9790","275.1686","0","U","43923","999","9801","0.00000568770000","0.00000061","0.0000000000000","7032.018","97.809","655.477","652.289","PAYLOAD","LARGE","US","2019-01-11","AFWTR","","2875047","165127322","0 IRIDIUM 176","1 43923U 19002B   20312.76774320 +.00000061 +00000-0 +56877-5 0  9992","2 43923 086.6076 129.2827 0002267 084.9790 275.1686 14.72254144098018"
"2.0","GENERATED VIA SPACE-TRACK.ORG API","2020-11-08T05:03:59","18 SPCS","SL-18 DEB","1993-014BJ","EARTH","TEME","UTC","SGP4","2020-11-07T16:34:04.302048","14.81833084","0.00741700","75.7394","301.7988","221.5669","137.9866","0","U","35359","999","70349","0.00060765000000","0.00005019","0.0000000000000","7001.680","97.176","675.477","571.614","DEBRIS","SMALL","CIS","1993-03-25","PKMTR","","2875047","165121620","0 SL-18 DEB","1 35359U 93014BJ  20312.69032757 +.00005019 +00000-0 +60765-3 0  9991","2 35359 075.7394 301.7988 0074170 221.5669 137.9866 14.81833084703491"
"2.0","GENERATED VIA SPACE-TRACK.ORG API","2020-11-07T17:57:51","18 SPCS","IRIDIUM 176","2019-002B","EARTH","TEME","UTC","SGP4","2020-11-07T10:16:10.992000","14.72254143","0.00022720","86.6076","129.4248","85.0067","275.1409","0","U","43923","999","9796","0.00000579750000","0.00000061","0.0000000000000","7032.018","97.809","655.480","652.285","PAYLOAD","LARGE","US","2019-01-11","AFWTR","","2874722","165100272","0 IRIDIUM 176","1 43923U 19002B   20312.42790500 +.00000061 +00000-0 +57975-5 0  9993","2 43923 086.6076 129.4248 0002272 085.0067 275.1409 14.72254143097967"
"2.0","GENERATED VIA SPACE-TRACK.ORG API","2020-11-07T17:57:51","18 SPCS","SL-18 DEB","1993-014BJ","EARTH","TEME","UTC","SGP4","2020-11-07T06:50:43.929024","14.81829008","0.00742010","75.7395","302.5155","222.5704","136.9717","0","U","35359","999","70343","0.00060351000000","0.00004984","0.0000000000000","7001.693","97.177","675.512","571.605","DEBRIS","SMALL","CIS","1993-03-25","PKMTR","","2874722","165094114","0 SL-18 DEB","1 35359U 93014BJ  20312.28523066 +.00004984 +00000-0 +60351-3 0  9995","2 35359 075.7395 302.5155 0074201 222.5704 136.9717 14.81829008703432"
